OBJECT_NAME,OBJECT_ID,EPOCH,MEAN_MOTION,ECCENTRICITY,INCLINATION,RA_OF_ASC_NODE,ARG_OF_PERICENTER,MEAN_ANOMALY,EPHEMERIS_TYPE,CLASSIFICATION_TYPE,NORAD_CAT_ID,ELEMENT_SET_NO,REV_AT_EPOCH,BSTAR,MEAN_MOTION_DOT,MEAN_MOTION_DDOT
ONEWEB-0277,2021-060AE,2026-06-11T15:38:16.060992,13.16593653,.0001875,87.9094,229.8833,100.7119,259.4223,0,U,48995,999,23883,.42835E-4,.29E-6,0
ONEWEB-0278,2021-060AF,2026-06-11T13:35:06.992160,13.16596940,.0002249,87.9101,229.8902,101.6583,258.4801,0,U,48996,999,23895,.67454E-4,.39E-6,0
ONEWEB-0279,2021-060AG,2026-06-11T15:35:58.975296,13.16594482,.0001785,87.9101,229.8717,95.5524,264.5810,0,U,48997,999,23889,.52245E-4,.33E-6,0
ONEWEB-0280,2021-060AH,2026-06-11T15:57:37.638144,13.16593261,.0002045,87.9100,229.8730,108.1285,252.0068,0,U,48998,999,23883,-.14164E-3,-.41E-6,0
ONEWEB-0281,2021-060AJ,2026-06-11T16:05:37.363776,13.16594698,.0002111,87.9101,229.8670,98.9745,261.1625,0,U,48999,999,23890,-.21231E-3,-.68E-6,0
ONEWEB-0282,2021-060AK,2026-06-11T14:59:28.262688,13.16596251,.0001928,87.9098,229.8847,101.7790,258.3557,0,U,49000,999,23887,.16581E-3,.76E-6,0
ONEWEB-0283,2021-060AL,2026-06-11T16:32:58.417728,13.16593818,.0001895,87.9098,229.8713,97.0784,263.0563,0,U,49001,999,23889,-.3094E-3,-.105E-5,0
ONEWEB-0284,2021-060AM,2026-06-11T16:23:51.741600,13.16593971,.0002195,87.9099,229.8658,106.7546,253.3826,0,U,49002,999,23887,-.23385E-3,-.77E-6,0
ONEWEB-0285,2021-075A,2026-06-11T13:42:30.842784,13.12444844,.0001769,87.8946,351.7790,90.8166,269.3165,0,U,49075,999,23447,.62537E-4,.35E-6,0
ONEWEB-0286,2021-075B,2026-06-11T13:16:41.562048,13.12442953,.0002009,87.8940,351.8003,87.0571,273.0788,0,U,49076,999,23382,-.10405E-2,-.362E-5,0
ONEWEB-0287,2021-075C,2026-06-11T14:57:34.079040,13.17649203,.0002282,87.9134,6.9729,87.3692,272.7701,0,U,49077,999,23289,.19062E-3,.87E-6,0
ONEWEB-0288,2021-075D,2026-06-11T12:42:44.822016,13.12441972,.0002007,87.8946,351.7805,92.5899,267.5459,0,U,49078,999,23444,.47456E-3,.183E-5,0
ONEWEB-0289,2021-075E,2026-06-11T14:03:54.792576,13.17649705,.000176,87.9140,6.9967,99.5745,260.5585,0,U,49079,999,23346,.95462E-4,.5E-6,0
ONEWEB-0290,2021-075F,2026-06-11T15:14:35.141280,13.17648453,.0001692,87.9144,6.9588,104.1808,255.9511,0,U,49080,999,23288,.11008E-3,.56E-6,0
ONEWEB-0291,2021-075G,2026-06-11T14:52:42.911040,13.17648222,.0002151,87.9139,6.9699,94.7198,265.4179,0,U,49081,999,23287,.11188E-3,.56E-6,0
ONEWEB-0293,2021-075H,2026-06-11T13:39:48.104064,13.17648151,.0001836,87.9136,6.9830,92.0681,268.0661,0,U,49082,999,23289,.10562E-3,.54E-6,0
ONEWEB-0294,2021-075J,2026-06-11T12:52:30.221760,13.12442583,.0001734,87.8946,351.7828,100.5843,259.5481,0,U,49083,999,23383,-.15601E-3,-.43E-6,0
ONEWEB-0295,2021-075K,2026-06-11T13:38:35.511648,13.17648308,.0002144,87.9135,6.9873,90.8712,269.2665,0,U,49084,999,23285,.20048E-3,.91E-6,0
ONEWEB-0296,2021-075L,2026-06-11T12:23:13.955136,13.12443224,.0002111,87.8951,351.7941,95.1907,264.9462,0,U,49085,999,23383,.13506E-2,.499E-5,0
ONEWEB-0297,2021-075M,2026-06-11T13:07:07.909248,13.12443531,.0001923,87.8937,351.7995,89.8967,270.2382,0,U,49086,999,23444,-.87617E-3,-.302E-5,0
ONEWEB-0298,2021-075N,2026-06-11T13:44:51.789696,13.17647682,.0001921,87.9137,6.9844,83.9509,276.1842,0,U,49087,999,23288,.88511E-4,.47E-6,0
ONEWEB-0299,2021-075P,2026-06-11T13:47:06.481248,13.17649565,.0002018,87.9147,6.9636,86.4811,273.6551,0,U,49088,999,23286,.10134E-3,.52E-6,0
ONEWEB-0300,2021-075Q,2026-06-11T12:56:09.156768,13.12443292,.0001908,87.8948,351.7797,78.2391,281.8951,0,U,49089,999,23446,-.34994E-3,-.113E-5,0
ONEWEB-0301,2021-075R,2026-06-11T12:32:59.076672,13.12444019,.0001754,87.8945,351.7814,78.2746,281.8579,0,U,49090,999,23382,.10743E-2,.399E-5,0
ONEWEB-0302,2021-075S,2026-06-11T14:03:15.591168,13.12443774,.0001861,87.8950,351.7807,99.4144,260.7195,0,U,49091,999,23381,.11758E-2,.436E-5,0
ONEWEB-0304,2021-075T,2026-06-11T15:00:00.008640,13.17648210,.0002013,87.9134,6.9769,88.7128,271.4234,0,U,49092,999,23284,.80768E-4,.44E-6,0
ONEWEB-0305,2021-075U,2026-06-11T14:50:16.944288,13.17648697,.0002263,87.9143,6.9622,88.2430,271.8961,0,U,49093,999,23287,.22391E-4,.22E-6,0
ONEWEB-0308,2021-075V,2026-06-11T12:03:42.880032,13.12444336,.0001805,87.8948,351.7894,89.5616,270.5720,0,U,49094,999,23381,.82335E-3,.309E-5,0
ONEWEB-0309,2021-075W,2026-06-11T14:55:08.044896,13.17647839,.0001853,87.9133,6.9704,102.7892,257.3446,0,U,49095,999,23284,.16008E-3,.75E-6,0
ONEWEB-0310,2021-075X,2026-06-11T12:25:40.129248,13.12443767,.0001787,87.8938,351.8084,90.1273,270.0060,0,U,49096,999,23444,.11884E-2,.44E-5,0
ONEWEB-0311,2021-075Y,2026-06-11T15:04:52.312800,13.17649746,.0002286,87.9137,6.9686,83.3769,276.7623,0,U,49097,999,23289,.14194E-3,.68E-6,0
