ONEWEB-0277             
1 48995U 21060AE  26162.65157478  .00000029  00000+0  42835-4 0  9990
2 48995  87.9094 229.8833 0001875 100.7119 259.4223 13.16593653238832
ONEWEB-0278             
1 48996U 21060AF  26162.56605315  .00000039  00000+0  67454-4 0  9994
2 48996  87.9101 229.8902 0002249 101.6583 258.4801 13.16596940238956
ONEWEB-0279             
1 48997U 21060AG  26162.64998814  .00000033  00000+0  52245-4 0  9999
2 48997  87.9101 229.8717 0001785  95.5524 264.5810 13.16594482238891
ONEWEB-0280             
1 48998U 21060AH  26162.66501896 -.00000041  00000+0 -14164-3 0  9990
2 48998  87.9100 229.8730 0002045 108.1285 252.0068 13.16593261238836
ONEWEB-0281             
1 48999U 21060AJ  26162.67057134 -.00000068  00000+0 -21231-3 0  9995
2 48999  87.9101 229.8670 0002111  98.9745 261.1625 13.16594698238905
ONEWEB-0282             
1 49000U 21060AK  26162.62463267  .00000076  00000+0  16581-3 0  9991
2 49000  87.9098 229.8847 0001928 101.7790 258.3557 13.16596251238873
ONEWEB-0283             
1 49001U 21060AL  26162.68956502 -.00000105  00000+0 -30940-3 0  9997
2 49001  87.9098 229.8713 0001895  97.0784 263.0563 13.16593818238897
ONEWEB-0284             
1 49002U 21060AM  26162.68323775 -.00000077  00000+0 -23385-3 0  9991
2 49002  87.9099 229.8658 0002195 106.7546 253.3826 13.16593971238877
ONEWEB-0285             
1 49075U 21075A   26162.57119031  .00000035  00000+0  62537-4 0  9998
2 49075  87.8946 351.7790 0001769  90.8166 269.3165 13.12444844234471
ONEWEB-0286             
1 49076U 21075B   26162.55325882 -.00000362  00000+0 -10405-2 0  9990
2 49076  87.8940 351.8003 0002009  87.0571 273.0788 13.12442953233820
ONEWEB-0287             
1 49077U 21075C   26162.62331110  .00000087  00000+0  19062-3 0  9991
2 49077  87.9134   6.9729 0002282  87.3692 272.7701 13.17649203232899
ONEWEB-0288             
1 49078U 21075D   26162.52968544  .00000183  00000+0  47456-3 0  9993
2 49078  87.8946 351.7805 0002007  92.5899 267.5459 13.12441972234441
ONEWEB-0289             
1 49079U 21075E   26162.58605084  .00000050  00000+0  95462-4 0  9991
2 49079  87.9140   6.9967 0001760  99.5745 260.5585 13.17649705233462
ONEWEB-0290             
1 49080U 21075F   26162.63512895  .00000056  00000+0  11008-3 0  9995
2 49080  87.9144   6.9588 0001692 104.1808 255.9511 13.17648453232885
ONEWEB-0291             
1 49081U 21075G   26162.61994110  .00000056  00000+0  11188-3 0  9997
2 49081  87.9139   6.9699 0002151  94.7198 265.4179 13.17648222232879
ONEWEB-0293             
1 49082U 21075H   26162.56930676  .00000054  00000+0  10562-3 0  9992
2 49082  87.9136   6.9830 0001836  92.0681 268.0661 13.17648151232899
ONEWEB-0294             
1 49083U 21075J   26162.53646090 -.00000043  00000+0 -15601-3 0  9993
2 49083  87.8946 351.7828 0001734 100.5843 259.5481 13.12442583233834
ONEWEB-0295             
1 49084U 21075K   26162.56846657  .00000091  00000+0  20048-3 0  9990
2 49084  87.9135   6.9873 0002144  90.8712 269.2665 13.17648308232858
ONEWEB-0296             
1 49085U 21075L   26162.51613374  .00000499  00000+0  13506-2 0  9996
2 49085  87.8951 351.7941 0002111  95.1907 264.9462 13.12443224233830
ONEWEB-0297             
1 49086U 21075M   26162.54661932 -.00000302  00000+0 -87617-3 0  9993
2 49086  87.8937 351.7995 0001923  89.8967 270.2382 13.12443531234440
ONEWEB-0298             
1 49087U 21075N   26162.57282164  .00000047  00000+0  88511-4 0  9992
2 49087  87.9137   6.9844 0001921  83.9509 276.1842 13.17647682232881
ONEWEB-0299             
1 49088U 21075P   26162.57438057  .00000052  00000+0  10134-3 0  9998
2 49088  87.9147   6.9636 0002018  86.4811 273.6551 13.17649565232863
ONEWEB-0300             
1 49089U 21075Q   26162.53899487 -.00000113  00000+0 -34994-3 0  9993
2 49089  87.8948 351.7797 0001908  78.2391 281.8951 13.12443292234467
ONEWEB-0301             
1 49090U 21075R   26162.52290598  .00000399  00000+0  10743-2 0  9991
2 49090  87.8945 351.7814 0001754  78.2746 281.8579 13.12444019233822
ONEWEB-0302             
1 49091U 21075S   26162.58559712  .00000436  00000+0  11758-2 0  9993
2 49091  87.8950 351.7807 0001861  99.4144 260.7195 13.12443774233813
ONEWEB-0304             
1 49092U 21075T   26162.62500010  .00000044  00000+0  80768-4 0  9990
2 49092  87.9134   6.9769 0002013  88.7128 271.4234 13.17648210232840
ONEWEB-0305             
1 49093U 21075U   26162.61825167  .00000022  00000+0  22391-4 0  9997
2 49093  87.9143   6.9622 0002263  88.2430 271.8961 13.17648697232870
ONEWEB-0308             
1 49094U 21075V   26162.50257963  .00000309  00000+0  82335-3 0  9990
2 49094  87.8948 351.7894 0001805  89.5616 270.5720 13.12444336233819
ONEWEB-0309             
1 49095U 21075W   26162.62162089  .00000075  00000+0  16008-3 0  9992
2 49095  87.9133   6.9704 0001853 102.7892 257.3446 13.17647839232841
ONEWEB-0310             
1 49096U 21075X   26162.51782557  .00000440  00000+0  11884-2 0  9991
2 49096  87.8938 351.8084 0001787  90.1273 270.0060 13.12443767234447
ONEWEB-0311             
1 49097U 21075Y   26162.62838325  .00000068  00000+0  14194-3 0  9993
2 49097  87.9137   6.9686 0002286  83.3769 276.7623 13.17649746232890
